UNKNOWN                 
1 81893U          26052.42955693  .00000933  00000+0  99543-3 0  9994
2 81893 100.0563  44.6584 0021596  87.0077 273.3542 13.76873364613801
UNKNOWN                 
1 81899U          26055.30000130  .00001480  00000+0  35172-2 0  9992
2 81899 102.4117 175.3613 0171548  60.0819 301.7205 13.20428011588695
UNKNOWN                 
1 81921U          26043.00290307  .00002156  00000+0  89945-3 0  9998
2 81921  65.7084 274.0577 0843521  88.0128 281.7178 13.15370292 33840
UNKNOWN                 
1 81946U          26048.94870347  .00000249  00000+0  97573-3 0  9998
2 81946  66.4205  23.3578 0677596 318.9191  68.0424 12.42637156556235
UNKNOWN                 
1 81947U          26046.26945096  .00005449  00000+0  53381-3 0  9992
2 81947  66.0766 348.0426 0369403 102.1488 262.1248 14.53455041640397
UNKNOWN                 
1 81964U          26056.47811782  .00000202  00000+0  20472-3 0  9996
2 81964  66.5834  73.1648 0032615  26.0582 334.2130 13.95849466624475
UNKNOWN                 
1 81969U          26055.60932618  .00008860  00000+0  50054-3 0  9994
2 81969  86.6866 121.3467 0001873 238.0925 122.0133 15.12979087451334
UNKNOWN                 
1 81995U          26051.07796973  .00003706  00000+0  69737-3 0  9994
2 81995  65.7468 302.4623 0517247 262.9812  91.2196 14.04877272613961
UNKNOWN                 
1 82043U          26056.37570936  .00003749  00000+0  10332-2 0  9999
2 82043  97.9353 203.8650 0230183 218.7023 139.7477 14.32941681584531
UNKNOWN                 
1 82051U          26046.47695657  .00006292  00000+0  20421-2 0  9992
2 82051  98.7424 137.9574 0090792  69.8098 291.2824 14.36892613581707
UNKNOWN                 
1 82073U          26056.42449811  .00002007  00000+0  51237-3 0  9991
2 82073  97.7417 130.4324 0206718  59.9801 302.1723 14.39415398585867
UNKNOWN                 
1 82139U          26055.64331407  .00002288  00000+0  11467-2 0  9999
2 82139  99.0142 129.4014 0084194 192.5105 167.3979 14.15835113490579
UNKNOWN                 
1 82162U          26055.77119144  .00003879  00000+0  57091-2 0  9991
2 82162 100.4716 349.5286 0058378  41.4221 319.1318 13.54243792514323
UNKNOWN                 
1 82189U          26054.27633996  .00000240  00000+0  92846-4 0  9998
2 82189  74.0332 275.3120 0015327  89.8098 270.4811 14.35271379642826
UNKNOWN                 
1 82199U          26052.81738918  .00000528  00000+0  44436-3 0  9997
2 82199  82.9687 180.4477 0038292 192.8041 320.3034 13.85869180619539
UNKNOWN                 
1 82205U          26056.36949144  .00003961  00000+0  10972-2 0  9995
2 82205  63.0101  33.4141 0496455 300.7032  54.5987 13.93879590618405
UNKNOWN                 
1 82223U          26052.13259575  .00002300  00000+0  12493-2 0  9994
2 82223  99.3169 305.8336 0067042 147.5291 213.0031 14.12247530458727
UNKNOWN                 
1 82250U          26052.69245436  .00003701  00000+0  19054-2 0  9992
2 82250  98.9069 322.9345 0073432 351.4477  38.9972 14.14423970626667
UNKNOWN                 
1 82272U          26054.03263440  .00000435  00000+0  14985-2 0  9990
2 82272  67.5239  69.8132 0751080  59.6223 307.6857 12.33592761280850
UNKNOWN                 
1 82303U          26056.41551020  .00024205  00000+0  19043-1 0  9993
2 82303  81.9263 298.4152 0026427  62.8378  59.8726 13.91426560524794
UNKNOWN                 
1 82311U          26056.57906072  .00000481  00000+0  73233-3 0  9993
2 82311  99.4257 111.9989 0111150 119.8696 241.3542 13.54654390560451
UNKNOWN                 
1 82363U          26055.34672259  .00000063  00000+0  19684-3 0  9997
2 82363  66.9382  36.3500 0450303 118.3666 246.3545 13.15669155299945
UNKNOWN                 
1 82369U          26045.50693129 -.00000082  00000+0 -26937-4 0  9992
2 82369  98.8964  63.6483 0083761 162.2169 198.1958 13.98212213566084
UNKNOWN                 
1 82381U          26056.59871320  .00020451  00000+0  23948-2 0  9995
2 82381  98.3911 290.0826 0007476 274.8137  85.2222 14.85043855521909
UNKNOWN                 
1 82402U          26056.15073949  .00004507  00000+0  31815-3 0  9999
2 82402  86.6643 123.4484 0006201 234.2198 125.8461 15.04692136465655
UNKNOWN                 
1 82432U          26052.09279449  .00001538  00000+0  32780-3 0  9997
2 82432  74.0056 206.3627 0056050 352.3963   7.6345 14.58878349493161
UNKNOWN                 
1 82448U          26055.25927865  .00006421  00000+0  45142-3 0  9999
2 82448  85.8766 160.0331 0007672  10.8262 349.3136 15.04900841448099
UNKNOWN                 
1 82453U          26056.32049291  .00000023  00000+0  50256-3 0  9996
2 82453 102.1902  17.6679 0093935  69.4171 291.6938 12.39709201555302
UNKNOWN                 
1 82458U          26027.80523470  .00004849  00000+0  21370-2 0  9992
2 82458  66.5137  63.4517 0057759 335.2450  24.5873 14.23291843616591
UNKNOWN                 
1 82484U          26054.50419213  .00000131  00000+0  24602-3 0  9999
2 82484  99.3516  77.3756 0044607  11.0877 349.1234 13.55826039600498
UNKNOWN                 
1 82494U          26055.90848651  .00015950  00000+0  16852-2 0  9999
2 82494  74.0048 233.7027 0004817   0.8527 359.2661 14.89228385 95992
UNKNOWN                 
1 82500U          26050.85482106  .00003138  00000+0  14212-2 0  9998
2 82500  70.9638 217.5013 0117608   9.2860 351.0399 14.19103656628751
UNKNOWN                 
1 82524U          26055.39441513  .00003203  00000+0  10079-2 0  9995
2 82524  73.2816  40.3863 0132574 167.1732 343.8316 14.35966811587601
UNKNOWN                 
1 82529U          26054.72494774  .00000346  00000+0  59218-3 0  9997
2 82529  99.7823 140.8000 0238607  63.0363  86.5513 13.41184972599524
UNKNOWN                 
1 82560U          26055.14713480  .00001260  00000+0  10461-2 0  9999
2 82560  99.9945   8.1615 0011001 103.9953 270.2458 13.90873622622078
UNKNOWN                 
1 82597U          26050.17895322  .00001269  00000+0  44081-3 0  9998
2 82597  66.7733 327.7369 0098992 259.9727  99.0193 14.36076363638805
UNKNOWN                 
1 82617U          26056.54923146  .00000486  00000+0  13284-3 0  9995
2 82617  74.0253 103.2105 0037817  26.2101 334.0962 14.49523754647667
UNKNOWN                 
1 82627U          26052.36947258  .00000608  00000+0  15625-2 0  9998
2 82627  82.4778 198.2634 0014530 269.9373 120.7632 13.16415979588129
UNKNOWN                 
1 82642U          26032.97791198  .00002355  00000+0  13099-2 0  9994
2 82642  98.9747 308.1803 0135744  93.2686 268.4022 14.07439108623348
UNKNOWN                 
1 82683U          26056.65048455  .00001317  00000+0  50719-3 0  9999
2 82683  98.1620 124.9617 0210727 176.2642 184.0171 14.20358187472905
UNKNOWN                 
1 82693U          26053.87442255  .00002594  00000+0  29983-2 0  9993
2 82693 100.5290  29.0327 0038801 205.7452 154.1760 13.69948557563639
UNKNOWN                 
1 82698U          26055.27813905  .00001202  00000+0  73831-3 0  9995
2 82698  61.6107 313.4753 0688156 317.0685  37.8509 13.29844282548154
UNKNOWN                 
1 82708U          26056.05352368  .00000909  00000+0  36134-2 0  9992
2 82708 102.1703 271.4059 0058857 137.2526 223.3165 12.90717963533107
UNKNOWN                 
1 82729U          26034.30198165  .00000491  00000+0  17478-2 0  9998
2 82729  67.9680  55.0044 0836970 334.6781  21.5304 12.17839691541607
UNKNOWN                 
1 82739U          26055.42085313  .00000499  00000+0  44109-3 0  9995
2 82739  99.0930 214.2617 0172159  96.6656 293.1044 13.82961052616291
UNKNOWN                 
1 82741U          26055.37143538  .00001841  00000+0  20068-2 0  9995
2 82741 102.8434 119.5291 0200607 103.3962 258.9615 13.66426735607139
UNKNOWN                 
1 82783U          26055.92992811  .00000658  00000+0  18960-2 0  9991
2 82783  90.3432  40.5314 0020661 277.2196  82.6583 13.09079590514068
UNKNOWN                 
1 82798U          26036.56364306  .00002735  00000+0  11979-2 0  9999
2 82798  82.9517 147.8550 0027484   5.2638  11.8631 14.23218012320174
UNKNOWN                 
1 82820U          26055.92153076  .00003267  00000+0  11355-2 0  9995
2 82820  99.7931 231.5605 0049684 164.1155 196.1598 14.35621347636275
UNKNOWN                 
1 82829U          26047.73549546  .00000186  00000+0  62868-2 0  9997
2 82829  65.1038 312.4892 0178136 322.2986  65.4853 11.29162853493534
UNKNOWN                 
1 82854U          26057.15896423  .00002064  00000+0  16033-2 0  9991
2 82854  82.6904   5.4338 0131602  66.5162 294.9769 13.88095661618266
UNKNOWN                 
1 82873U          26052.68091422  .00002874  00000+0  12404-2 0  9998
2 82873  99.9953 321.5844 0039573  83.8329 276.7352 14.25018769631332
UNKNOWN                 
1 82875U          26052.74272912  .00000606  00000+0  16746-3 0  9997
2 82875  98.6843  39.3736 0379457  79.2474 285.1173 14.15262019554517
UNKNOWN                 
1 82893U          26056.56134368  .00007505  00000+0  27409-2 0  9995
2 82893  98.9589 179.1333 0027885 185.1684 174.9215 14.33071020434685
UNKNOWN                 
1 82912U          26054.25236213  .00002256  00000+0  95291-3 0  9996
2 82912  65.8374   7.0851 0771136 236.0550 116.4876 13.28346405588958
UNKNOWN                 
1 82961U          26055.86737354  .00012459  00000+0  17309-1 0  9998
2 82961  99.8288 211.5681 0430825 191.9328 167.1322 13.25638641565525
UNKNOWN                 
1 82965U          26055.17254350  .00000946  00000+0  13270-2 0  9998
2 82965 100.1081 142.0748 0002998 187.0719 173.0378 13.60190427534431
UNKNOWN                 
1 83903U          26056.55456434 -.00000339  00000+0  00000+0 0  9992
2 83903   5.9999 289.9582 0122260 253.5241 322.7262  0.99117610 44404
UNKNOWN                 
1 83934U          26056.09084288 -.00000045  00000+0  00000+0 0  9993
2 83934   5.6157 297.0216 0224861 275.6920 306.0995  1.02661366 46041
